     2.10           GLONASS NAV DATA                        RINEX VERSION / TYPE
GR50 V4.83          SWISSTOPO           2025 06 28 23:59    PGM / RUN BY / DATE 
  2025     6    29   -9.313225746155D-10                    CORR TO SYSTEM TIME 
    18                                                      LEAP SECONDS        
                                                            END OF HEADER       
 1 25 06 28 17 15  0.0 1.303125172853D-04 9.094947017729D-13 6.120000000000D+04
    3.839862304688D+03 2.112960815430D-01-1.862645149231D-09 0.000000000000D+00
    2.458407861328D+04 7.657451629639D-01 0.000000000000D+00 1.000000000000D+00
    5.659194335938D+03-3.467145919800D+00-1.862645149231D-09 0.000000000000D+00
 2 25 06 28 19 15  0.0-2.955924719572D-05 0.000000000000D+00 6.840000000000D+04
    1.183787939453D+04-1.930236816406D-03-1.862645149231D-09 0.000000000000D+00
    2.241870166016D+04-3.961248397827D-01 2.793967723846D-09-4.000000000000D+00
   -2.450779296875D+03-3.574431419373D+00-1.862645149231D-09 0.000000000000D+00
 3 25 06 28 21 15  0.0 1.250030472875D-04 0.000000000000D+00 7.560000000000D+04
    1.843660595703D+04-1.019584655762D+00-0.000000000000D+00 0.000000000000D+00
    1.500463867188D+04-7.611389160156D-01 3.725290298462D-09 5.000000000000D+00
   -9.132349609375D+03-3.297330856323D+00-9.313225746155D-10 0.000000000000D+00
 4 25 06 28 22 45  0.0 2.982420846820D-04 1.818989403546D-12 8.100000000000D+04
    2.155669335938D+04-1.498805999756D+00 9.313225746155D-10 0.000000000000D+00
    7.799382812500D+03-3.720951080322D-01 3.725290298462D-09 6.000000000000D+00
   -1.114703955078D+04-3.151800155640D+00-9.313225746155D-10 0.000000000000D+00
 5 25 06 28 23 45  0.0 1.520952209830D-04 0.000000000000D+00 8.460000000000D+04
    2.444668310547D+04-1.012634277344D+00 1.862645149231D-09 0.000000000000D+00
   -2.524023437500D+01-6.484508514404D-02 2.793967723846D-09 1.000000000000D+00
   -7.240376953125D+03-3.415992736816D+00-9.313225746155D-10 0.000000000000D+00
 6 25 06 28 23 45  0.0-2.209916710854D-04-1.818989403546D-12 8.460000000000D+04
    1.917169482422D+04 1.789129257202D+00-9.313225746155D-10 0.000000000000D+00
   -1.005694189453D+04-4.826622009277D-01 9.313225746155D-10-4.000000000000D+00
    1.346741503906D+04-2.905171394348D+00-1.862645149231D-09 0.000000000000D+00
 7 25 06 28 23 45  0.0 1.082159578800D-04 9.094947017729D-13 8.460000000000D+04
    4.199654296875D+03 3.037376403809D+00-2.793967723846D-09 0.000000000000D+00
   -1.122928320313D+04-5.071706771851D-01-9.313225746155D-10 5.000000000000D+00
    2.254756591797D+04-8.239717483521D-01-1.862645149231D-09 0.000000000000D+00
 8 25 06 28 23 45  0.0-4.667788743973D-06 0.000000000000D+00 8.619000000000D+04
   -1.399225292969D+04 2.722874641418D+00-2.793967723846D-09 0.000000000000D+00
   -7.310634765625D+03-3.121652603149D-01-2.793967723846D-09 6.000000000000D+00
    2.010617578125D+04 1.783548355103D+00-0.000000000000D+00 0.000000000000D+00
 9 25 06 28 23 45  0.0 2.635465934873D-04 2.728484105319D-12 8.460000000000D+04
    1.272117041016D+04-6.191444396973D-01-1.862645149231D-09 0.000000000000D+00
   -1.867302929688D+04 1.507943153381D+00 0.000000000000D+00-2.000000000000D+00
    1.195138818359D+04 3.013161659241D+00-9.313225746155D-10 0.000000000000D+00
10 25 06 28 16 15  0.0-3.452384844422D-04-4.547473508865D-12 5.760000000000D+04
   -1.394969189453D+04-2.169933319092D+00 0.000000000000D+00 0.000000000000D+00
    1.006691406250D+03-1.955564498901D+00 0.000000000000D+00-7.000000000000D+00
    2.134908496094D+04-1.318235397339D+00-2.793967723846D-09 0.000000000000D+00
11 25 06 28 17 45  0.0 1.520663499832D-05-9.094947017729D-13 6.300000000000D+04
   -1.374589941406D+04-2.684378623962D+00 0.000000000000D+00 0.000000000000D+00
    5.337570312500D+03-9.538364410400D-01 0.000000000000D+00 0.000000000000D+00
    2.082311230469D+04-1.530539512634D+00-2.793967723846D-09 0.000000000000D+00
12 25 06 28 19 45  0.0 5.603395402431D-05 9.094947017729D-13 7.020000000000D+04
   -1.472505322266D+04-2.380332946777D+00 0.000000000000D+00 0.000000000000D+00
    1.093700244141D+04 4.690876007080D-01 0.000000000000D+00-1.000000000000D+00
    1.776014794922D+04-2.265492439270D+00-1.862645149231D-09 0.000000000000D+00
13 25 06 28 21 15  0.0-6.027705967426D-05-0.000000000000D+00 7.560000000000D+04
   -1.200845166016D+04-1.737542152405D+00 9.313225746155D-10 0.000000000000D+00
    1.633781347656D+04 1.218019485474D+00 0.000000000000D+00-2.000000000000D+00
    1.547256298828D+04-2.633213043213D+00-1.862645149231D-09 0.000000000000D+00
14 25 06 28 23 15  0.0 2.880208194256D-05 0.000000000000D+00 8.280000000000D+04
   -5.790906250000D+03-5.963115692139D-01 9.313225746155D-10 0.000000000000D+00
    2.231392285156D+04 1.371272087097D+00 0.000000000000D+00-7.000000000000D+00
    1.091103125000D+04-3.128334045410D+00-1.862645149231D-09 0.000000000000D+00
15 25 06 28 23 45  0.0 6.679166108370D-05-0.000000000000D+00 8.460000000000D+04
    3.712619140625D+03-8.689556121826D-01 0.000000000000D+00 0.000000000000D+00
    1.629817578125D+04 2.488537788391D+00-0.000000000000D+00 0.000000000000D+00
    1.928865136719D+04-1.939006805420D+00-2.793967723846D-09 0.000000000000D+00
16 25 06 28 23 45  0.0 3.725569695234D-05 9.094947017729D-13 8.460000000000D+04
    1.192605908203D+04-1.133782386780D+00-9.313225746155D-10 0.000000000000D+00
   -1.408307617188D+03 2.863468170166D+00 0.000000000000D+00-1.000000000000D+00
    2.252585058594D+04 7.761468887329D-01-2.793967723846D-09 0.000000000000D+00
17 25 06 28 23 45  0.0 2.048378810287D-04 3.637978807092D-12 8.460000000000D+04
    5.603403320313D+03-1.254698753357D+00 9.313225746155D-10 0.000000000000D+00
    1.899651464844D+04-1.818843841553D+00 0.000000000000D+00 4.000000000000D+00
    1.610815966797D+04 2.577239990234D+00-2.793967723846D-09 0.000000000000D+00
18 25 06 28 23 45  0.0 2.092048525810D-04 9.094947017729D-13 8.460000000000D+04
    1.512230566406D+04 7.285308837891D-02 2.793967723846D-09 0.000000000000D+00
    2.048151562500D+04-2.618846893311D-01 1.862645149231D-09-3.000000000000D+00
    1.196885253906D+03 3.595465660095D+00-1.862645149231D-09 0.000000000000D+00
19 25 06 28 19 15  0.0-1.866649836302D-05-5.456968210638D-12 6.840000000000D+04
    1.223998144531D+04 2.087020874023D-02 9.313225746155D-10 0.000000000000D+00
   -2.224309082031D+04-3.281412124634D-01-4.656612873077D-09 3.000000000000D+00
    2.118177246094D+03-3.556482315063D+00 1.862645149231D-09 0.000000000000D+00
20 25 06 28 09 15  0.0-1.325542107224D-04-0.000000000000D+00 3.246000000000D+04
    1.135272949219D+03 2.069702148438D-01 1.862645149231D-09 0.000000000000D+00
    2.502555078125D+04 6.803150177002D-01 4.656612873077D-09 2.000000000000D+00
    4.899359863281D+03-3.522155761719D+00 1.862645149231D-09 0.000000000000D+00
21 25 06 28 20 45  0.0-2.147788181901D-04-3.637978807092D-12 7.380000000000D+04
   -5.456915039063D+03 1.463088989258D-01-0.000000000000D+00 0.000000000000D+00
   -1.830066894531D+04-2.317051887512D+00-4.656612873077D-09 4.000000000000D+00
    1.688624072266D+04-2.466136932373D+00 0.000000000000D+00 0.000000000000D+00
22 25 06 28 21 45  0.0 7.235538214445D-05 1.818989403546D-12 7.740000000000D+04
   -1.111887109375D+04-3.949413299561D-01-9.313225746155D-10 0.000000000000D+00
   -9.739769042969D+03-2.816883087158D+00-3.725290298462D-09-3.000000000000D+00
    2.081264550781D+04-1.530338287354D+00-0.000000000000D+00 0.000000000000D+00
23 25 06 28 22 45  0.0-1.588659361005D-04-9.094947017729D-13 8.100000000000D+04
   -1.238066699219D+04-1.203483581543D+00-1.862645149231D-09 0.000000000000D+00
   -4.074844238281D+03-2.757193565369D+00-2.793967723846D-09 3.000000000000D+00
    2.191349707031D+04-1.192311286926D+00-9.313225746155D-10 0.000000000000D+00
24 25 06 28 23 45  0.0-1.106718555093D-04-1.818989403546D-12 8.460000000000D+04
   -8.595143554688D+03-1.973720550537D+00-9.313225746155D-10 0.000000000000D+00
    6.800031250000D+03-2.457551956177D+00-1.862645149231D-09 2.000000000000D+00
    2.304504003906D+04-1.330280303955D-02-1.862645149231D-09 0.000000000000D+00
 8 25 06 29 00 15  0.0-4.665926098824D-06 0.000000000000D+00 0.000000000000D+00
   -8.833494628906D+03 2.958623886108D+00-3.725290298462D-09 0.000000000000D+00
   -8.313044433594D+03-8.063945770264D-01-1.862645149231D-09 6.000000000000D+00
    2.250325488281D+04 8.627233505249D-01-9.313225746155D-10 0.000000000000D+00
17 25 06 29 00 15  0.0 2.048444002867D-04 2.728484105319D-12 0.000000000000D+00
    2.753141113281D+03-1.903518676758D+00 0.000000000000D+00 0.000000000000D+00
    1.553152978516D+04-1.983307838440D+00-0.000000000000D+00 4.000000000000D+00
    2.006609912109D+04 1.791908264160D+00-1.862645149231D-09 0.000000000000D+00
16 25 06 29 00 15  0.0 3.725662827492D-05 9.094947017729D-13 0.000000000000D+00
    1.024214404297D+04-7.189102172852D-01-0.000000000000D+00 0.000000000000D+00
    3.972689453125D+03 3.067038536072D+00 0.000000000000D+00-1.000000000000D+00
    2.303600000000D+04-2.130928039551D-01-2.793967723846D-09 0.000000000000D+00
 7 25 06 29 00 15  0.0 1.082178205252D-04 0.000000000000D+00 0.000000000000D+00
    9.336178222656D+03 2.625536918640D+00-1.862645149231D-09 0.000000000000D+00
   -1.248295166016D+04-8.605918884277D-01 0.000000000000D+00 5.000000000000D+00
    2.021460400391D+04-1.751618385315D+00-1.862645149231D-09 0.000000000000D+00
 5 25 06 29 00 15  0.0 1.520961523056D-04 0.000000000000D+00 0.000000000000D+00
    2.191403125000D+04-1.770969390869D+00 2.793967723846D-09 0.000000000000D+00
    1.610844726563D+02 3.041086196899D-01 2.793967723846D-09 1.000000000000D+00
   -1.302926171875D+04-2.974267959595D+00-9.313225746155D-10 0.000000000000D+00
